[{"OBJECT_NAME":"STARLINK-4342","OBJECT_ID":"2022-077AD","EPOCH":"2025-12-19T12:19:49.442880","MEAN_MOTION":15.05648659,"ECCENTRICITY":0.000171,"INCLINATION":97.6021,"RA_OF_ASC_NODE":172.2787,"ARG_OF_PERICENTER":82.3829,"MEAN_ANOMALY":277.7592,"EPHEMERIS_TYPE":0,"CLASSIFICATION_TYPE":"U","NORAD_CAT_ID":53070,"ELEMENT_SET_NO":999,"REV_AT_EPOCH":18892,"BSTAR":4.8487e-5,"MEAN_MOTION_DOT":6.39e-6,"MEAN_MOTION_DDOT":0},{"OBJECT_NAME":"STARLINK-4328","OBJECT_ID":"2022-077AE","EPOCH":"2025-12-19T10:40:09.463008","MEAN_MOTION":15.05649235,"ECCENTRICITY":0.0001313,"INCLINATION":97.6025,"RA_OF_ASC_NODE":172.2002,"ARG_OF_PERICENTER":80.9615,"MEAN_ANOMALY":279.1761,"EPHEMERIS_TYPE":0,"CLASSIFICATION_TYPE":"U","NORAD_CAT_ID":53071,"ELEMENT_SET_NO":999,"REV_AT_EPOCH":18891,"BSTAR":0.00012071,"MEAN_MOTION_DOT":1.681e-5,"MEAN_MOTION_DDOT":0},{"OBJECT_NAME":"STARLINK-4344","OBJECT_ID":"2022-077AF","EPOCH":"2025-12-19T11:55:53.296032","MEAN_MOTION":15.05651391,"ECCENTRICITY":0.000134,"INCLINATION":97.6026,"RA_OF_ASC_NODE":172.1407,"ARG_OF_PERICENTER":90.4155,"MEAN_ANOMALY":269.7226,"EPHEMERIS_TYPE":0,"CLASSIFICATION_TYPE":"U","NORAD_CAT_ID":53072,"ELEMENT_SET_NO":999,"REV_AT_EPOCH":18891,"BSTAR":-7.6765e-5,"MEAN_MOTION_DOT":-1.168e-5,"MEAN_MOTION_DDOT":0},{"OBJECT_NAME":"STARLINK-4346","OBJECT_ID":"2022-077AG","EPOCH":"2025-12-19T02:31:36.646464","MEAN_MOTION":15.17478781,"ECCENTRICITY":0.00057092,"INCLINATION":97.6351,"RA_OF_ASC_NODE":175.3084,"ARG_OF_PERICENTER":172.3708,"MEAN_ANOMALY":187.7613,"EPHEMERIS_TYPE":0,"CLASSIFICATION_TYPE":"U","NORAD_CAT_ID":53073,"ELEMENT_SET_NO":999,"REV_AT_EPOCH":18906,"BSTAR":0.0016851548,"MEAN_MOTION_DOT":0.0003383,"MEAN_MOTION_DDOT":0},{"OBJECT_NAME":"STARLINK-4310","OBJECT_ID":"2022-077AH","EPOCH":"2025-12-19T10:16:11.949312","MEAN_MOTION":15.05645809,"ECCENTRICITY":0.0001735,"INCLINATION":97.6025,"RA_OF_ASC_NODE":172.0721,"ARG_OF_PERICENTER":86.9309,"MEAN_ANOMALY":273.2117,"EPHEMERIS_TYPE":0,"CLASSIFICATION_TYPE":"U","NORAD_CAT_ID":53074,"ELEMENT_SET_NO":999,"REV_AT_EPOCH":18890,"BSTAR":6.9168e-6,"MEAN_MOTION_DOT":3.9e-7,"MEAN_MOTION_DDOT":0},{"OBJECT_NAME":"STARLINK-4348","OBJECT_ID":"2022-077AJ","EPOCH":"2025-12-19T11:34:24.576096","MEAN_MOTION":15.01261373,"ECCENTRICITY":6.37e-5,"INCLINATION":97.6022,"RA_OF_ASC_NODE":171.6731,"ARG_OF_PERICENTER":108.3051,"MEAN_ANOMALY":251.8243,"EPHEMERIS_TYPE":0,"CLASSIFICATION_TYPE":"U","NORAD_CAT_ID":53075,"ELEMENT_SET_NO":999,"REV_AT_EPOCH":18888,"BSTAR":-1.2165e-5,"MEAN_MOTION_DOT":-2.14e-6,"MEAN_MOTION_DDOT":0},{"OBJECT_NAME":"STARLINK-4347","OBJECT_ID":"2022-077AK","EPOCH":"2025-12-19T17:56:02.351616","MEAN_MOTION":15.01256921,"ECCENTRICITY":4.17e-5,"INCLINATION":97.6022,"RA_OF_ASC_NODE":171.9481,"ARG_OF_PERICENTER":94.8692,"MEAN_ANOMALY":265.258,"EPHEMERIS_TYPE":0,"CLASSIFICATION_TYPE":"U","NORAD_CAT_ID":53076,"ELEMENT_SET_NO":999,"REV_AT_EPOCH":18892,"BSTAR":2.6896e-5,"MEAN_MOTION_DOT":2.87e-6,"MEAN_MOTION_DDOT":0},{"OBJECT_NAME":"STARLINK-4322","OBJECT_ID":"2022-077AM","EPOCH":"2025-12-19T17:52:59.656224","MEAN_MOTION":15.012713,"ECCENTRICITY":0.0001312,"INCLINATION":97.6021,"RA_OF_ASC_NODE":171.9418,"ARG_OF_PERICENTER":161.3055,"MEAN_ANOMALY":198.8217,"EPHEMERIS_TYPE":0,"CLASSIFICATION_TYPE":"U","NORAD_CAT_ID":53078,"ELEMENT_SET_NO":999,"REV_AT_EPOCH":18892,"BSTAR":7.7975e-6,"MEAN_MOTION_DOT":4.2e-7,"MEAN_MOTION_DDOT":0},{"OBJECT_NAME":"STARLINK-4327","OBJECT_ID":"2022-077AN","EPOCH":"2025-12-19T11:04:03.146592","MEAN_MOTION":15.0565002,"ECCENTRICITY":0.0001468,"INCLINATION":97.6024,"RA_OF_ASC_NODE":172.1518,"ARG_OF_PERICENTER":80.1119,"MEAN_ANOMALY":280.0274,"EPHEMERIS_TYPE":0,"CLASSIFICATION_TYPE":"U","NORAD_CAT_ID":53079,"ELEMENT_SET_NO":999,"REV_AT_EPOCH":18891,"BSTAR":8.2865e-5,"MEAN_MOTION_DOT":1.135e-5,"MEAN_MOTION_DDOT":0},{"OBJECT_NAME":"STARLINK-4330","OBJECT_ID":"2022-077AP","EPOCH":"2025-12-19T11:27:58.674816","MEAN_MOTION":15.05646373,"ECCENTRICITY":0.0001638,"INCLINATION":97.6025,"RA_OF_ASC_NODE":172.1395,"ARG_OF_PERICENTER":81.0328,"MEAN_ANOMALY":279.1084,"EPHEMERIS_TYPE":0,"CLASSIFICATION_TYPE":"U","NORAD_CAT_ID":53080,"ELEMENT_SET_NO":999,"REV_AT_EPOCH":18891,"BSTAR":-4.2579e-5,"MEAN_MOTION_DOT":-6.75e-6,"MEAN_MOTION_DDOT":0},{"OBJECT_NAME":"STARLINK-4326","OBJECT_ID":"2022-077AQ","EPOCH":"2025-12-19T11:26:45.629664","MEAN_MOTION":15.01260752,"ECCENTRICITY":0.0001464,"INCLINATION":97.6021,"RA_OF_ASC_NODE":171.6622,"ARG_OF_PERICENTER":208.8166,"MEAN_ANOMALY":151.2977,"EPHEMERIS_TYPE":0,"CLASSIFICATION_TYPE":"U","NORAD_CAT_ID":53081,"ELEMENT_SET_NO":999,"REV_AT_EPOCH":18888,"BSTAR":1.5769e-5,"MEAN_MOTION_DOT":1.44e-6,"MEAN_MOTION_DDOT":0},{"OBJECT_NAME":"STARLINK-4321","OBJECT_ID":"2022-077AR","EPOCH":"2025-12-19T17:42:19.649088","MEAN_MOTION":15.0125713,"ECCENTRICITY":0.0002865,"INCLINATION":97.602,"RA_OF_ASC_NODE":171.9336,"ARG_OF_PERICENTER":180.0127,"MEAN_ANOMALY":180.1098,"EPHEMERIS_TYPE":0,"CLASSIFICATION_TYPE":"U","NORAD_CAT_ID":53082,"ELEMENT_SET_NO":999,"REV_AT_EPOCH":18892,"BSTAR":5.6321e-6,"MEAN_MOTION_DOT":1.4e-7,"MEAN_MOTION_DDOT":0},{"OBJECT_NAME":"STARLINK-4251","OBJECT_ID":"2022-077AS","EPOCH":"2025-12-19T17:42:47.922624","MEAN_MOTION":15.05648333,"ECCENTRICITY":0.0001528,"INCLINATION":97.6019,"RA_OF_ASC_NODE":172.366,"ARG_OF_PERICENTER":81.5021,"MEAN_ANOMALY":278.6379,"EPHEMERIS_TYPE":0,"CLASSIFICATION_TYPE":"U","NORAD_CAT_ID":53083,"ELEMENT_SET_NO":999,"REV_AT_EPOCH":18895,"BSTAR":2.6785e-5,"MEAN_MOTION_DOT":3.26e-6,"MEAN_MOTION_DDOT":0},{"OBJECT_NAME":"STARLINK-4319","OBJECT_ID":"2022-077AT","EPOCH":"2025-12-19T11:16:01.183296","MEAN_MOTION":15.056616,"ECCENTRICITY":0.0002022,"INCLINATION":97.6019,"RA_OF_ASC_NODE":172.1319,"ARG_OF_PERICENTER":70.1509,"MEAN_ANOMALY":289.9936,"EPHEMERIS_TYPE":0,"CLASSIFICATION_TYPE":"U","NORAD_CAT_ID":53084,"ELEMENT_SET_NO":999,"REV_AT_EPOCH":18891,"BSTAR":8.8958e-5,"MEAN_MOTION_DOT":1.223e-5,"MEAN_MOTION_DDOT":0},{"OBJECT_NAME":"STARLINK-4324","OBJECT_ID":"2022-077AU","EPOCH":"2025-12-19T11:35:56.836608","MEAN_MOTION":15.05646158,"ECCENTRICITY":0.0001744,"INCLINATION":97.6028,"RA_OF_ASC_NODE":172.1081,"ARG_OF_PERICENTER":75.1182,"MEAN_ANOMALY":285.0238,"EPHEMERIS_TYPE":0,"CLASSIFICATION_TYPE":"U","NORAD_CAT_ID":53085,"ELEMENT_SET_NO":999,"REV_AT_EPOCH":18891,"BSTAR":-1.6456e-5,"MEAN_MOTION_DOT":-2.98e-6,"MEAN_MOTION_DDOT":0},{"OBJECT_NAME":"STARLINK-4318","OBJECT_ID":"2022-077AV","EPOCH":"2025-12-19T11:13:04.836576","MEAN_MOTION":15.01263257,"ECCENTRICITY":0.0002274,"INCLINATION":97.6025,"RA_OF_ASC_NODE":171.6693,"ARG_OF_PERICENTER":139.6923,"MEAN_ANOMALY":220.4471,"EPHEMERIS_TYPE":0,"CLASSIFICATION_TYPE":"U","NORAD_CAT_ID":53086,"ELEMENT_SET_NO":999,"REV_AT_EPOCH":18888,"BSTAR":-4.0944e-5,"MEAN_MOTION_DOT":-5.84e-6,"MEAN_MOTION_DDOT":0},{"OBJECT_NAME":"STARLINK-4333","OBJECT_ID":"2022-077AX","EPOCH":"2025-12-19T11:07:44.901696","MEAN_MOTION":15.01259051,"ECCENTRICITY":0.0001746,"INCLINATION":97.6028,"RA_OF_ASC_NODE":171.6663,"ARG_OF_PERICENTER":182.657,"MEAN_ANOMALY":177.4646,"EPHEMERIS_TYPE":0,"CLASSIFICATION_TYPE":"U","NORAD_CAT_ID":53088,"ELEMENT_SET_NO":999,"REV_AT_EPOCH":18888,"BSTAR":2.2209e-5,"MEAN_MOTION_DOT":2.27e-6,"MEAN_MOTION_DDOT":0},{"OBJECT_NAME":"STARLINK-4063","OBJECT_ID":"2022-083A","EPOCH":"2025-12-19T20:15:07.261056","MEAN_MOTION":16.06673027,"ECCENTRICITY":0.0001704,"INCLINATION":53.2101,"RA_OF_ASC_NODE":146.9819,"ARG_OF_PERICENTER":94.9063,"MEAN_ANOMALY":265.2166,"EPHEMERIS_TYPE":0,"CLASSIFICATION_TYPE":"U","NORAD_CAT_ID":53132,"ELEMENT_SET_NO":999,"REV_AT_EPOCH":18952,"BSTAR":0.0015795,"MEAN_MOTION_DOT":0.01218509,"MEAN_MOTION_DDOT":0.00088165},{"OBJECT_NAME":"STARLINK-4150","OBJECT_ID":"2022-083C","EPOCH":"2025-12-18T19:05:34.590336","MEAN_MOTION":15.08839517,"ECCENTRICITY":0.00014465,"INCLINATION":53.2159,"RA_OF_ASC_NODE":177.267,"ARG_OF_PERICENTER":97.1089,"MEAN_ANOMALY":263.0067,"EPHEMERIS_TYPE":0,"CLASSIFICATION_TYPE":"U","NORAD_CAT_ID":53134,"ELEMENT_SET_NO":999,"REV_AT_EPOCH":18900,"BSTAR":4.7302895e-5,"MEAN_MOTION_DOT":4.65e-6,"MEAN_MOTION_DDOT":0},{"OBJECT_NAME":"STARLINK-4023","OBJECT_ID":"2022-083D","EPOCH":"2025-12-19T19:06:57.555072","MEAN_MOTION":15.08836433,"ECCENTRICITY":0.0001457,"INCLINATION":53.2161,"RA_OF_ASC_NODE":172.7737,"ARG_OF_PERICENTER":90.6244,"MEAN_ANOMALY":269.4915,"EPHEMERIS_TYPE":0,"CLASSIFICATION_TYPE":"U","NORAD_CAT_ID":53135,"ELEMENT_SET_NO":999,"REV_AT_EPOCH":19014,"BSTAR":1.9242e-5,"MEAN_MOTION_DOT":1.8e-7,"MEAN_MOTION_DDOT":0},{"OBJECT_NAME":"STARLINK-4152","OBJECT_ID":"2022-083E","EPOCH":"2025-12-18T22:21:38.763360","MEAN_MOTION":15.0884347,"ECCENTRICITY":0.00012237,"INCLINATION":53.2174,"RA_OF_ASC_NODE":176.6583,"ARG_OF_PERICENTER":80.7904,"MEAN_ANOMALY":279.3227,"EPHEMERIS_TYPE":0,"CLASSIFICATION_TYPE":"U","NORAD_CAT_ID":53136,"ELEMENT_SET_NO":999,"REV_AT_EPOCH":19001,"BSTAR":5.9492942e-5,"MEAN_MOTION_DOT":6.59e-6,"MEAN_MOTION_DDOT":0},{"OBJECT_NAME":"STARLINK-4145","OBJECT_ID":"2022-083F","EPOCH":"2025-12-18T19:00:16.717824","MEAN_MOTION":15.08842145,"ECCENTRICITY":0.00015178,"INCLINATION":53.2164,"RA_OF_ASC_NODE":177.2836,"ARG_OF_PERICENTER":96.2968,"MEAN_ANOMALY":263.8197,"EPHEMERIS_TYPE":0,"CLASSIFICATION_TYPE":"U","NORAD_CAT_ID":53137,"ELEMENT_SET_NO":999,"REV_AT_EPOCH":18900,"BSTAR":1.7813162e-5,"MEAN_MOTION_DOT":-4.0e-8,"MEAN_MOTION_DDOT":0},{"OBJECT_NAME":"STARLINK-4141","OBJECT_ID":"2022-083G","EPOCH":"2025-12-19T12:27:33.986304","MEAN_MOTION":15.08835027,"ECCENTRICITY":0.0001355,"INCLINATION":53.216,"RA_OF_ASC_NODE":169.2009,"ARG_OF_PERICENTER":91.3576,"MEAN_ANOMALY":268.7571,"EPHEMERIS_TYPE":0,"CLASSIFICATION_TYPE":"U","NORAD_CAT_ID":53138,"ELEMENT_SET_NO":999,"REV_AT_EPOCH":18995,"BSTAR":2.5078e-5,"MEAN_MOTION_DOT":1.11e-6,"MEAN_MOTION_DDOT":0}]
